start=new Date('2023-07-02T00:00:00.000Z').valueOf();
sats=[{"REF_FRAME":"TEME","OBJECT_ID":"2021-018C","ECCENTRICITY":"0.00011520","TIME_SYSTEM":"UTC","OBJECT_TYPE":"PAYLOAD","ARG_OF_PERICENTER":"93.0847","NORAD_CAT_ID":"47789","RCS_SIZE":"LARGE","ELEMENT_SET_NO":"999","EPHEMERIS_TYPE":"0","MEAN_ELEMENT_THEORY":"SGP4","MEAN_MOTION_DDOT":"0.0000000000000","BSTAR":"0.00096031000000","REV_AT_EPOCH":"12853","SITE":"AFETR","PERIOD":"95.590","SEMIMAJOR_AXIS":"6925.260","TLE_LINE1":"1 47789U 21018C   23182.76104955  .00014062  00000-0  96031-3 0  9995","CLASSIFICATION_TYPE":"U","MEAN_MOTION_DOT":"0.00014062","COUNTRY_CODE":"US","LAUNCH_DATE":"2021-03-11","MEAN_MOTION":"15.06428945","MEAN_ANOMALY":"267.0274","CENTER_NAME":"EARTH","GP_ID":"234659766","DECAY_DATE":null,"FILE":"3947152","EPOCH":"2023-07-01T18:15:54.681120","PERIAPSIS":"546.327","RA_OF_ASC_NODE":"319.6666","INCLINATION":"53.0545","APOAPSIS":"547.923","TLE_LINE2":"2 47789  53.0545 319.6666 0001152  93.0847 267.0274 15.06428945128537","OBJECT_NAME":"STARLINK-2315"},{"ECCENTRICITY":"0.00012090","OBJECT_ID":"2021-018D","REF_FRAME":"TEME","TIME_SYSTEM":"UTC","ARG_OF_PERICENTER":"87.4123","OBJECT_TYPE":"PAYLOAD","NORAD_CAT_ID":"47790","RCS_SIZE":"LARGE","EPHEMERIS_TYPE":"0","ELEMENT_SET_NO":"999","MEAN_ELEMENT_THEORY":"SGP4","MEAN_MOTION_DDOT":"0.0000000000000","REV_AT_EPOCH":"12867","BSTAR":"0.00096162000000","SITE":"AFETR","PERIOD":"95.591","SEMIMAJOR_AXIS":"6925.304","TLE_LINE1":"1 47790U 21018D   23182.73618682  .00014076  00000-0  96162-3 0  9991","CLASSIFICATION_TYPE":"U","MEAN_MOTION_DOT":"0.00014076","COUNTRY_CODE":"US","MEAN_MOTION":"15.06414416","LAUNCH_DATE":"2021-03-11","MEAN_ANOMALY":"272.7005","FILE":"3947027","GP_ID":"234656841","DECAY_DATE":null,"CENTER_NAME":"EARTH","PERIAPSIS":"546.332","EPOCH":"2023-07-01T17:40:06.541248","RA_OF_ASC_NODE":"309.7791","INCLINATION":"53.0551","TLE_LINE2":"2 47790  53.0551 309.7791 0001209  87.4123 272.7005 15.06414416128670","APOAPSIS":"548.007","OBJECT_NAME":"STARLINK-2319"},{"RCS_SIZE":"LARGE","ELEMENT_SET_NO":"999","EPHEMERIS_TYPE":"0","MEAN_ELEMENT_THEORY":"SGP4","MEAN_MOTION_DDOT":"0.0000000000000","BSTAR":"0.00071411000000","REV_AT_EPOCH":"12825","REF_FRAME":"TEME","OBJECT_ID":"2021-018E","ECCENTRICITY":"0.00012150","TIME_SYSTEM":"UTC","OBJECT_TYPE":"PAYLOAD","ARG_OF_PERICENTER":"128.2903","NORAD_CAT_ID":"47791","CENTER_NAME":"EARTH","GP_ID":"234656362","FILE":"3947033","DECAY_DATE":null,"EPOCH":"2023-07-01T18:07:57.087840","PERIAPSIS":"546.302","RA_OF_ASC_NODE":"339.6941","INCLINATION":"53.0547","APOAPSIS":"547.984","TLE_LINE2":"2 47791  53.0547 339.6941 0001215 128.2903 231.8195 15.06423006128257","OBJECT_NAME":"STARLINK-2322","SITE":"AFETR","PERIOD":"95.591","TLE_LINE1":"1 47791U 21018E   23182.75552185  .00010378  00000-0  71411-3 0  9990","SEMIMAJOR_AXIS":"6925.278","CLASSIFICATION_TYPE":"U","MEAN_MOTION_DOT":"0.00010378","COUNTRY_CODE":"US","LAUNCH_DATE":"2021-03-11","MEAN_MOTION":"15.06423006","MEAN_ANOMALY":"231.8195"},{"MEAN_MOTION_DDOT":"0.0000000000000","BSTAR":"0.00105520000000","REV_AT_EPOCH":"12847","MEAN_ELEMENT_THEORY":"SGP4","ELEMENT_SET_NO":"999","EPHEMERIS_TYPE":"0","RCS_SIZE":"LARGE","NORAD_CAT_ID":"47792","OBJECT_TYPE":"PAYLOAD","ARG_OF_PERICENTER":"84.0299","REF_FRAME":"TEME","ECCENTRICITY":"0.00011730","OBJECT_ID":"2021-018F","TIME_SYSTEM":"UTC","OBJECT_NAME":"STARLINK-2334","INCLINATION":"53.0550","RA_OF_ASC_NODE":"321.4202","APOAPSIS":"547.990","TLE_LINE2":"2 47792  53.0550 321.4202 0001173  84.0299 276.0824 15.06411555128471","CENTER_NAME":"EARTH","GP_ID":"234650232","FILE":"3946772","DECAY_DATE":null,"EPOCH":"2023-07-01T08:53:18.689280","PERIAPSIS":"546.366","LAUNCH_DATE":"2021-03-11","MEAN_MOTION":"15.06411555","MEAN_ANOMALY":"276.0824","MEAN_MOTION_DOT":"0.00015475","COUNTRY_CODE":"US","TLE_LINE1":"1 47792U 21018F   23182.37035520  .00015475  00000-0  10552-2 0  9999","SEMIMAJOR_AXIS":"6925.313","CLASSIFICATION_TYPE":"U","SITE":"AFETR","PERIOD":"95.591"},{"MEAN_MOTION_DDOT":"0.0000000000000","BSTAR":"0.00089296000000","REV_AT_EPOCH":"12852","MEAN_ELEMENT_THEORY":"SGP4","ELEMENT_SET_NO":"999","EPHEMERIS_TYPE":"0","RCS_SIZE":"LARGE","NORAD_CAT_ID":"47793","OBJECT_TYPE":"PAYLOAD","ARG_OF_PERICENTER":"72.7590","REF_FRAME":"TEME","OBJECT_ID":"2021-018G","ECCENTRICITY":"0.00009440","TIME_SYSTEM":"UTC","OBJECT_NAME":"STARLINK-2338","INCLINATION":"53.0543","RA_OF_ASC_NODE":"319.8689","APOAPSIS":"547.818","TLE_LINE2":"2 47793  53.0543 319.8689 0000944  72.7590 287.3502 15.06416016128528","CENTER_NAME":"EARTH","GP_ID":"234657134","DECAY_DATE":null,"FILE":"3947035","EPOCH":"2023-07-01T17:12:14.565600","PERIAPSIS":"546.511","LAUNCH_DATE":"2021-03-11","MEAN_MOTION":"15.06416016","MEAN_ANOMALY":"287.3502","MEAN_MOTION_DOT":"0.00013050","COUNTRY_CODE":"US","TLE_LINE1":"1 47793U 21018G   23182.71683525  .00013050  00000-0  89296-3 0  9991","SEMIMAJOR_AXIS":"6925.299","CLASSIFICATION_TYPE":"U","SITE":"AFETR","PERIOD":"95.591"},{"OBJECT_TYPE":"PAYLOAD","ARG_OF_PERICENTER":"77.2352","TIME_SYSTEM":"UTC","REF_FRAME":"TEME","ECCENTRICITY":"0.00010210","OBJECT_ID":"2021-018H","NORAD_CAT_ID":"47794","ELEMENT_SET_NO":"999","EPHEMERIS_TYPE":"0","RCS_SIZE":"LARGE","BSTAR":"0.00114460000000","REV_AT_EPOCH":"12847","MEAN_MOTION_DDOT":"0.0000000000000","MEAN_ELEMENT_THEORY":"SGP4","CLASSIFICATION_TYPE":"U","TLE_LINE1":"1 47794U 21018H   23182.38877845  .00016816  00000-0  11446-2 0  9999","SEMIMAJOR_AXIS":"6925.295","PERIOD":"95.591","SITE":"AFETR","MEAN_ANOMALY":"282.8751","LAUNCH_DATE":"2021-03-11","MEAN_MOTION":"15.06417580","COUNTRY_CODE":"US","MEAN_MOTION_DOT":"0.00016816","EPOCH":"2023-07-01T09:19:50.458080","PERIAPSIS":"546.453","CENTER_NAME":"EARTH","FILE":"3946774","GP_ID":"234649764","DECAY_DATE":null,"OBJECT_NAME":"STARLINK-2341","APOAPSIS":"547.867","TLE_LINE2":"2 47794  53.0543 321.3403 0001021  77.2352 282.8751 15.06417580128471","RA_OF_ASC_NODE":"321.3403","INCLINATION":"53.0543"},{"NORAD_CAT_ID":"47795","TIME_SYSTEM":"UTC","OBJECT_ID":"2021-018J","ECCENTRICITY":"0.00011660","REF_FRAME":"TEME","ARG_OF_PERICENTER":"92.5067","OBJECT_TYPE":"PAYLOAD","MEAN_ELEMENT_THEORY":"SGP4","REV_AT_EPOCH":"12847","BSTAR":"0.00077297000000","MEAN_MOTION_DDOT":"0.0000000000000","RCS_SIZE":"LARGE","EPHEMERIS_TYPE":"0","ELEMENT_SET_NO":"999","COUNTRY_CODE":"US","MEAN_MOTION_DOT":"0.00011254","MEAN_ANOMALY":"267.6056","MEAN_MOTION":"15.06412454","LAUNCH_DATE":"2021-03-11","PERIOD":"95.591","SITE":"AFETR","CLASSIFICATION_TYPE":"U","TLE_LINE1":"1 47795U 21018J   23182.37772444  .00011254  00000-0  77297-3 0  9996","SEMIMAJOR_AXIS":"6925.310","TLE_LINE2":"2 47795  53.0544 321.3866 0001166  92.5067 267.6056 15.06412454128473","APOAPSIS":"547.983","RA_OF_ASC_NODE":"321.3866","INCLINATION":"53.0544","OBJECT_NAME":"STARLINK-2347","PERIAPSIS":"546.368","EPOCH":"2023-07-01T09:03:55.391616","GP_ID":"234650282","FILE":"3946775","DECAY_DATE":null,"CENTER_NAME":"EARTH"},{"CLASSIFICATION_TYPE":"U","SEMIMAJOR_AXIS":"6925.347","TLE_LINE1":"1 47796U 21018K   23181.66265727  .00004053  00000-0  29081-3 0  9996","PERIOD":"95.592","SITE":"AFETR","MEAN_ANOMALY":"272.0792","LAUNCH_DATE":"2021-03-11","MEAN_MOTION":"15.06400410","COUNTRY_CODE":"US","MEAN_MOTION_DOT":"0.00004053","EPOCH":"2023-06-30T15:54:13.588128","PERIAPSIS":"546.313","CENTER_NAME":"EARTH","GP_ID":"234633645","FILE":"3946097","DECAY_DATE":null,"OBJECT_NAME":"STARLINK-2373","APOAPSIS":"548.111","TLE_LINE2":"2 47796  53.0549 324.5974 0001298  88.0345 272.0792 15.06400410128363","INCLINATION":"53.0549","RA_OF_ASC_NODE":"324.5974","OBJECT_TYPE":"PAYLOAD","ARG_OF_PERICENTER":"88.0345","TIME_SYSTEM":"UTC","REF_FRAME":"TEME","OBJECT_ID":"2021-018K","ECCENTRICITY":"0.00012980","NORAD_CAT_ID":"47796","ELEMENT_SET_NO":"999","EPHEMERIS_TYPE":"0","RCS_SIZE":"LARGE","BSTAR":"0.00029081000000","REV_AT_EPOCH":"12836","MEAN_MOTION_DDOT":"0.0000000000000","MEAN_ELEMENT_THEORY":"SGP4"},{"MEAN_ELEMENT_THEORY":"SGP4","BSTAR":"0.00087697000000","REV_AT_EPOCH":"12818","MEAN_MOTION_DDOT":"0.0000000000000","RCS_SIZE":"LARGE","ELEMENT_SET_NO":"999","EPHEMERIS_TYPE":"0","NORAD_CAT_ID":"47797","TIME_SYSTEM":"UTC","REF_FRAME":"TEME","OBJECT_ID":"2021-018L","ECCENTRICITY":"0.00011090","OBJECT_TYPE":"PAYLOAD","ARG_OF_PERICENTER":"109.0007","APOAPSIS":"547.932","TLE_LINE2":"2 47797  53.0543 344.6722 0001109 109.0007 251.1102 15.06416114128183","RA_OF_ASC_NODE":"344.6722","INCLINATION":"53.0543","OBJECT_NAME":"STARLINK-2377","EPOCH":"2023-07-01T18:15:15.091776","PERIAPSIS":"546.396","CENTER_NAME":"EARTH","DECAY_DATE":null,"GP_ID":"234657191","FILE":"3947052","COUNTRY_CODE":"US","MEAN_MOTION_DOT":"0.00012811","MEAN_ANOMALY":"251.1102","LAUNCH_DATE":"2021-03-11","MEAN_MOTION":"15.06416114","PERIOD":"95.591","SITE":"AFETR","CLASSIFICATION_TYPE":"U","TLE_LINE1":"1 47797U 21018L   23182.76059134  .00012811  00000-0  87697-3 0  9990","SEMIMAJOR_AXIS":"6925.299"},{"GP_ID":"234650563","DECAY_DATE":null,"FILE":"3946794","CENTER_NAME":"EARTH","PERIAPSIS":"546.370","EPOCH":"2023-07-01T09:41:04.336224","OBJECT_NAME":"STARLINK-2379","RA_OF_ASC_NODE":"321.2740","INCLINATION":"53.0551","TLE_LINE2":"2 47798  53.0551 321.2740 0001134  84.2476 275.8642 15.06418919128475","APOAPSIS":"547.941","TLE_LINE1":"1 47798U 21018M   23182.40352241  .00016470  00000-0  11214-2 0  9993","SEMIMAJOR_AXIS":"6925.291","CLASSIFICATION_TYPE":"U","SITE":"AFETR","PERIOD":"95.591","MEAN_MOTION":"15.06418919","LAUNCH_DATE":"2021-03-11","MEAN_ANOMALY":"275.8642","MEAN_MOTION_DOT":"0.00016470","COUNTRY_CODE":"US","EPHEMERIS_TYPE":"0","ELEMENT_SET_NO":"999","RCS_SIZE":"LARGE","MEAN_MOTION_DDOT":"0.0000000000000","REV_AT_EPOCH":"12847","BSTAR":"0.00112140000000","MEAN_ELEMENT_THEORY":"SGP4","ARG_OF_PERICENTER":"84.2476","OBJECT_TYPE":"PAYLOAD","ECCENTRICITY":"0.00011340","OBJECT_ID":"2021-018M","REF_FRAME":"TEME","TIME_SYSTEM":"UTC","NORAD_CAT_ID":"47798"}];
